sat24985
1 24985U 94029ACT 20046.91435705  .00000198  00000-0  64809-4 0  9997
2 24985  81.5197  30.4821 0662548 289.2331  63.8291 13.55339310284622
